KUIPER-00268            
1 67790U 26030AC  26065.56863914  .00036102  00000+0  10243-2 0  9994
2 67790  51.8841 234.1588 0002625  38.2589 321.8583 15.35873146  4613
KUIPER-00270            
1 67791U 26030AD  26065.58858203  .00035823  00000+0  10596-2 0  9992
2 67791  51.8813 234.2784 0010495  46.9331 313.2532 15.34524649  4616
KUIPER-00274            
1 67792U 26030AE  26065.61745147  .00018294  00000+0  61148-3 0  9992
2 67792  51.8821 234.4685 0018036  62.9747 297.3076 15.30909837  4613
KUIPER-00275            
1 67793U 26030AF  26065.58591066  .00038394  00000+0  11321-2 0  9998
2 67793  51.8845 234.2704 0009257  44.1699 316.0024 15.34599010  4617
KUIPER-00276            
1 67794U 26030AG  26065.55596830 -.00184658  00000+0 -61912-2 0  9998
2 67794  51.8810 234.8028 0018646  58.3109 301.9691 15.30922911  4608
KUIPER-00279            
1 67795U 26030AH  26065.57861353  .00021634  00000+0  63117-3 0  9998
2 67795  51.8802 234.2115 0006542  39.7132 320.4332 15.35264306  4613
CREW DRAGON 12          
1 67796U 26031A   26065.54469341  .00009332  00000+0  18044-3 0  9998
2 67796  51.6317  87.9051 0008117 163.3368 196.7888 15.48477653555728
STARLINK-36800          
1 67797U 26032A   26065.58067662  .00103317  00000+0  68420-3 0  9995
2 67797  97.2845 251.9096 0001391  92.2343 267.9082 15.75224016  4294
STARLINK-36798          
1 67798U 26032B   26065.58334491 -.00089893  00000+0 -60697-3 0  9995
2 67798  97.2850 251.9523 0001443  81.3623  25.8800 15.75234980  4227
STARLINK-36804          
1 67799U 26032C   26065.57889868  .00109282  00000+0  72213-3 0  9998
2 67799  97.2846 251.9121 0001630  90.9736 269.1716 15.75255851  4292
STARLINK-36354          
1 67800U 26032D   26065.58334491 -.00012983  00000+0 -86221-4 0  9997
2 67800  97.2849 251.9464 0001419  85.3627   1.8886 15.75211394  4282
STARLINK-36773          
1 67801U 26032E   26065.57573507  .00233484  00000+0  15183-2 0  9996
2 67801  97.2847 251.9162 0001624  81.4320 278.7129 15.75274802  4290
