CCSDS_OMM_VERS = 2.0
CREATION_DATE  = 
ORIGINATOR     = 

OBJECT_NAME    = KUIPER-00268
OBJECT_ID      = 2026-030AC
CENTER_NAME    = EARTH
REF_FRAME      = TEME
TIME_SYSTEM    = UTC
MEAN_ELEMENT_THEORY = SGP/SGP4

EPOCH          = 2026-03-06T13:38:50.421696
MEAN_MOTION    = 15.35873146
ECCENTRICITY   = .00026258
INCLINATION    = 51.8841
RA_OF_ASC_NODE = 234.1588
ARG_OF_PERICENTER = 38.2589
MEAN_ANOMALY   = 321.8583

EPHEMERIS_TYPE = 0
CLASSIFICATION_TYPE = U
NORAD_CAT_ID   = 67790
ELEMENT_SET_NO = 999
REV_AT_EPOCH   = 461
BSTAR          = .10243105E-2
MEAN_MOTION_DOT = .36102E-3
MEAN_MOTION_DDOT = 0

CCSDS_OMM_VERS = 2.0
CREATION_DATE  = 
ORIGINATOR     = 

OBJECT_NAME    = KUIPER-00270
OBJECT_ID      = 2026-030AD
CENTER_NAME    = EARTH
REF_FRAME      = TEME
TIME_SYSTEM    = UTC
MEAN_ELEMENT_THEORY = SGP/SGP4

EPOCH          = 2026-03-06T14:07:33.487392
MEAN_MOTION    = 15.34524649
ECCENTRICITY   = .00104959
INCLINATION    = 51.8813
RA_OF_ASC_NODE = 234.2784
ARG_OF_PERICENTER = 46.9331
MEAN_ANOMALY   = 313.2532

EPHEMERIS_TYPE = 0
CLASSIFICATION_TYPE = U
NORAD_CAT_ID   = 67791
ELEMENT_SET_NO = 999
REV_AT_EPOCH   = 461
BSTAR          = .1059551E-2
MEAN_MOTION_DOT = .35823E-3
MEAN_MOTION_DDOT = 0

CCSDS_OMM_VERS = 2.0
CREATION_DATE  = 
ORIGINATOR     = 

OBJECT_NAME    = KUIPER-00274
OBJECT_ID      = 2026-030AE
CENTER_NAME    = EARTH
REF_FRAME      = TEME
TIME_SYSTEM    = UTC
MEAN_ELEMENT_THEORY = SGP/SGP4

EPOCH          = 2026-03-06T14:49:07.807008
MEAN_MOTION    = 15.30909837
ECCENTRICITY   = .00180367
INCLINATION    = 51.8821
RA_OF_ASC_NODE = 234.4685
ARG_OF_PERICENTER = 62.9747
MEAN_ANOMALY   = 297.3076

EPHEMERIS_TYPE = 0
CLASSIFICATION_TYPE = U
NORAD_CAT_ID   = 67792
ELEMENT_SET_NO = 999
REV_AT_EPOCH   = 461
BSTAR          = .61148375E-3
MEAN_MOTION_DOT = .18294E-3
MEAN_MOTION_DDOT = 0

CCSDS_OMM_VERS = 2.0
CREATION_DATE  = 
ORIGINATOR     = 

OBJECT_NAME    = KUIPER-00275
OBJECT_ID      = 2026-030AF
CENTER_NAME    = EARTH
REF_FRAME      = TEME
TIME_SYSTEM    = UTC
MEAN_ELEMENT_THEORY = SGP/SGP4

EPOCH          = 2026-03-06T14:03:42.681024
MEAN_MOTION    = 15.34599010
ECCENTRICITY   = .00092571
INCLINATION    = 51.8845
RA_OF_ASC_NODE = 234.2704
ARG_OF_PERICENTER = 44.1699
MEAN_ANOMALY   = 316.0024

EPHEMERIS_TYPE = 0
CLASSIFICATION_TYPE = U
NORAD_CAT_ID   = 67793
ELEMENT_SET_NO = 999
REV_AT_EPOCH   = 461
BSTAR          = .11321429E-2
MEAN_MOTION_DOT = .38394E-3
MEAN_MOTION_DDOT = 0

CCSDS_OMM_VERS = 2.0
CREATION_DATE  = 
ORIGINATOR     = 

OBJECT_NAME    = KUIPER-00276
OBJECT_ID      = 2026-030AG
CENTER_NAME    = EARTH
REF_FRAME      = TEME
TIME_SYSTEM    = UTC
MEAN_ELEMENT_THEORY = SGP/SGP4

EPOCH          = 2026-03-06T13:20:35.661120
MEAN_MOTION    = 15.30922911
ECCENTRICITY   = .00186466
INCLINATION    = 51.8810
RA_OF_ASC_NODE = 234.8028
ARG_OF_PERICENTER = 58.3109
MEAN_ANOMALY   = 301.9691

EPHEMERIS_TYPE = 0
CLASSIFICATION_TYPE = U
NORAD_CAT_ID   = 67794
ELEMENT_SET_NO = 999
REV_AT_EPOCH   = 460
BSTAR          = -.6191235E-2
MEAN_MOTION_DOT = -.184658E-2
MEAN_MOTION_DDOT = 0

CCSDS_OMM_VERS = 2.0
CREATION_DATE  = 
ORIGINATOR     = 

OBJECT_NAME    = KUIPER-00279
OBJECT_ID      = 2026-030AH
CENTER_NAME    = EARTH
REF_FRAME      = TEME
TIME_SYSTEM    = UTC
MEAN_ELEMENT_THEORY = SGP/SGP4

EPOCH          = 2026-03-06T13:53:12.208992
MEAN_MOTION    = 15.35264306
ECCENTRICITY   = .00065429
INCLINATION    = 51.8802
RA_OF_ASC_NODE = 234.2115
ARG_OF_PERICENTER = 39.7132
MEAN_ANOMALY   = 320.4332

EPHEMERIS_TYPE = 0
CLASSIFICATION_TYPE = U
NORAD_CAT_ID   = 67795
ELEMENT_SET_NO = 999
REV_AT_EPOCH   = 461
BSTAR          = .63117168E-3
MEAN_MOTION_DOT = .21634E-3
MEAN_MOTION_DDOT = 0

CCSDS_OMM_VERS = 2.0
CREATION_DATE  = 
ORIGINATOR     = 

OBJECT_NAME    = CREW DRAGON 12
OBJECT_ID      = 2026-031A
CENTER_NAME    = EARTH
REF_FRAME      = TEME
TIME_SYSTEM    = UTC
MEAN_ELEMENT_THEORY = SGP/SGP4

EPOCH          = 2026-03-06T13:04:21.510624
MEAN_MOTION    = 15.48477653
ECCENTRICITY   = .00081171
INCLINATION    = 51.6317
RA_OF_ASC_NODE = 87.9051
ARG_OF_PERICENTER = 163.3368
MEAN_ANOMALY   = 196.7888

EPHEMERIS_TYPE = 0
CLASSIFICATION_TYPE = U
NORAD_CAT_ID   = 67796
ELEMENT_SET_NO = 999
REV_AT_EPOCH   = 55572
BSTAR          = .18044032E-3
MEAN_MOTION_DOT = .9332E-4
MEAN_MOTION_DDOT = 0

CCSDS_OMM_VERS = 2.0
CREATION_DATE  = 
ORIGINATOR     = 

OBJECT_NAME    = STARLINK-36800
OBJECT_ID      = 2026-032A
CENTER_NAME    = EARTH
REF_FRAME      = TEME
TIME_SYSTEM    = UTC
MEAN_ELEMENT_THEORY = SGP/SGP4

EPOCH          = 2026-03-06T13:56:10.459968
MEAN_MOTION    = 15.75224016
ECCENTRICITY   = .00013915
INCLINATION    = 97.2845
RA_OF_ASC_NODE = 251.9096
ARG_OF_PERICENTER = 92.2343
MEAN_ANOMALY   = 267.9082

EPHEMERIS_TYPE = 0
CLASSIFICATION_TYPE = U
NORAD_CAT_ID   = 67797
ELEMENT_SET_NO = 999
REV_AT_EPOCH   = 429
BSTAR          = .68419635E-3
MEAN_MOTION_DOT = .103317E-2
MEAN_MOTION_DDOT = 0

CCSDS_OMM_VERS = 2.0
CREATION_DATE  = 
ORIGINATOR     = 

OBJECT_NAME    = STARLINK-36798
OBJECT_ID      = 2026-032B
CENTER_NAME    = EARTH
REF_FRAME      = TEME
TIME_SYSTEM    = UTC
MEAN_ELEMENT_THEORY = SGP/SGP4

EPOCH          = 2026-03-06T14:00:01.000224
MEAN_MOTION    = 15.75234980
ECCENTRICITY   = .00014436
INCLINATION    = 97.2850
RA_OF_ASC_NODE = 251.9523
ARG_OF_PERICENTER = 81.3623
MEAN_ANOMALY   = 25.8800

EPHEMERIS_TYPE = 0
CLASSIFICATION_TYPE = U
NORAD_CAT_ID   = 67798
ELEMENT_SET_NO = 999
REV_AT_EPOCH   = 422
BSTAR          = -.60696905E-3
MEAN_MOTION_DOT = -.89893E-3
MEAN_MOTION_DDOT = 0

CCSDS_OMM_VERS = 2.0
CREATION_DATE  = 
ORIGINATOR     = 

OBJECT_NAME    = STARLINK-36804
OBJECT_ID      = 2026-032C
CENTER_NAME    = EARTH
REF_FRAME      = TEME
TIME_SYSTEM    = UTC
MEAN_ELEMENT_THEORY = SGP/SGP4

EPOCH          = 2026-03-06T13:53:36.845952
MEAN_MOTION    = 15.75255851
ECCENTRICITY   = .00016309
INCLINATION    = 97.2846
RA_OF_ASC_NODE = 251.9121
ARG_OF_PERICENTER = 90.9736
MEAN_ANOMALY   = 269.1716

EPHEMERIS_TYPE = 0
CLASSIFICATION_TYPE = U
NORAD_CAT_ID   = 67799
ELEMENT_SET_NO = 999
REV_AT_EPOCH   = 429
BSTAR          = .72213295E-3
MEAN_MOTION_DOT = .109282E-2
MEAN_MOTION_DDOT = 0

CCSDS_OMM_VERS = 2.0
CREATION_DATE  = 
ORIGINATOR     = 

OBJECT_NAME    = STARLINK-36354
OBJECT_ID      = 2026-032D
CENTER_NAME    = EARTH
REF_FRAME      = TEME
TIME_SYSTEM    = UTC
MEAN_ELEMENT_THEORY = SGP/SGP4

EPOCH          = 2026-03-06T14:00:01.000224
MEAN_MOTION    = 15.75211394
ECCENTRICITY   = .00014191
INCLINATION    = 97.2849
RA_OF_ASC_NODE = 251.9464
ARG_OF_PERICENTER = 85.3627
MEAN_ANOMALY   = 1.8886

EPHEMERIS_TYPE = 0
CLASSIFICATION_TYPE = U
NORAD_CAT_ID   = 67800
ELEMENT_SET_NO = 999
REV_AT_EPOCH   = 428
BSTAR          = -.86221231E-4
MEAN_MOTION_DOT = -.12983E-3
MEAN_MOTION_DDOT = 0

CCSDS_OMM_VERS = 2.0
CREATION_DATE  = 
ORIGINATOR     = 

OBJECT_NAME    = STARLINK-36773
OBJECT_ID      = 2026-032E
CENTER_NAME    = EARTH
REF_FRAME      = TEME
TIME_SYSTEM    = UTC
MEAN_ELEMENT_THEORY = SGP/SGP4

EPOCH          = 2026-03-06T13:49:03.510048
MEAN_MOTION    = 15.75274802
ECCENTRICITY   = .00016246
INCLINATION    = 97.2847
RA_OF_ASC_NODE = 251.9162
ARG_OF_PERICENTER = 81.4320
MEAN_ANOMALY   = 278.7129

EPHEMERIS_TYPE = 0
CLASSIFICATION_TYPE = U
NORAD_CAT_ID   = 67801
ELEMENT_SET_NO = 999
REV_AT_EPOCH   = 429
BSTAR          = .15182538E-2
MEAN_MOTION_DOT = .233484E-2
MEAN_MOTION_DDOT = 0

